[{"OBJECT_NAME":"BRO-15","OBJECT_ID":"2024-149CP","EPOCH":"2026-03-09T18:52:33.918816","MEAN_MOTION":14.95892184,"ECCENTRICITY":0.00093198,"INCLINATION":97.6864,"RA_OF_ASC_NODE":146.0377,"ARG_OF_PERICENTER":65.4416,"MEAN_ANOMALY":294.7775,"EPHEMERIS_TYPE":0,"CLASSIFICATION_TYPE":"U","NORAD_CAT_ID":60553,"ELEMENT_SET_NO":999,"REV_AT_EPOCH":8514,"BSTAR":7.8021491e-5,"MEAN_MOTION_DOT":8.16e-6,"MEAN_MOTION_DDOT":0},{"OBJECT_NAME":"STARLINK-34641","OBJECT_ID":"2025-150H","EPOCH":"2026-03-09T14:17:11.372064","MEAN_MOTION":14.98334402,"ECCENTRICITY":0.0003474,"INCLINATION":70.0015,"RA_OF_ASC_NODE":134.6559,"ARG_OF_PERICENTER":269.7987,"MEAN_ANOMALY":90.2774,"EPHEMERIS_TYPE":0,"CLASSIFICATION_TYPE":"U","NORAD_CAT_ID":64797,"ELEMENT_SET_NO":999,"REV_AT_EPOCH":3733,"BSTAR":0.00031486,"MEAN_MOTION_DOT":3.666e-5,"MEAN_MOTION_DDOT":0}]
