BRO-15                  
1 60553U 24149CP  26068.78650368  .00000816  00000+0  78021-4 0  9990
2 60553  97.6864 146.0377 0009320  65.4416 294.7775 14.95892184 85149
STARLINK-34641          
1 64797U 25150H   26068.59527051  .00003666  00000+0  31486-3 0  9997
2 64797  70.0015 134.6559 0003474 269.7987  90.2774 14.98334402 37330
